ONEWEB-0267             
1 48985U 21060U   24234.39536282  .00000017  00000+0  10244-4 0  9998
2 48985  87.9155   1.1404 0001385  97.8054 262.3234 13.16594537152117
ONEWEB-0268             
1 48986U 21060V   24234.43968550  .00000220  00000+0  54258-3 0  9999
2 48986  87.9156   1.1373 0001703  89.8260 270.3066 13.16593936152381
ONEWEB-0269             
1 48987U 21060W   24234.34466641  .00000214  00000+0  52510-3 0  9996
2 48987  87.9157   1.1841 0001863  95.2120 264.9223 13.16600131152140
ONEWEB-0270             
1 48988U 21060X   24234.43810965  .00000032  00000+0  48848-4 0  9997
2 48988  87.9156   1.1455 0001370 112.4756 247.6520 13.16594724152194
ONEWEB-0272             
1 48990U 21060Z   24234.37160123 -.00000004  00000+0 -44913-4 0  9997
2 48990  87.9157   1.1653 0001485  98.5839 261.5460 13.16597225152132
ONEWEB-0273             
1 48991U 21060AA  24234.39377782  .00000004  00000+0 -24117-4 0  9994
2 48991  87.9156   1.1473 0001749 104.9335 255.1990 13.16594319152114
ONEWEB-0274             
1 48992U 21060AB  24234.41911193  .00000066  00000+0  13788-3 0  9996
2 48992  87.9162   1.1608 0001528  81.3868 278.7436 13.16595317152155
